{"fetched_at":"2026-03-29T16:36:15Z","count":15609,"tles":[{"name":"STARLINK-30541","line1":"1 58057U 23158G   26087.85542130  .00002821  00000+0  11197-3 0  9999","line2":"2 58057  43.0040 278.5993 0001300 265.9316  94.1387 15.27588297136508","category":"Starlink"}]}