{
  "norad_id": 58057,
  "name": "STARLINK-30541",
  "history": [
    {
      "epoch": "2026-03-28T20:31:48.400320",
      "apogee_km": 483.91620291202616,
      "perigee_km": 482.13230098652,
      "latitude_deg": 42.53439803612807,
      "longitude_deg": 67.82044479995966,
      "semi_major_axis_km": 6861.161251949273,
      "eccentricity": 0.00013,
      "inclination_deg": 43.004,
      "raan_deg": 278.5993,
      "arg_perigee_deg": 265.9316,
      "mean_anomaly_deg": 94.1387,
      "mean_motion_rev_day": 15.27588297
    }
  ]
}